ORBCOMM FM06            
1 25118U 97084G   26178.55611384  .00001167  00000+0  35298-3 0  9996
2 25118  45.0146   2.7950 0000115  43.3000 339.5892 14.47586954495896
ORBCOMM FM04            
1 25159U 98007C   26178.49712181  .00000763  00000+0  30666-3 0  9992
2 25159 107.9627 190.6389 0041624 307.0683  52.6655 14.35758590478078
ORBCOMM FM19            
1 25415U 98046C   26178.51126148  .00000670  00000+0  25822-3 0  9990
2 25415  44.9920 194.4863 0004313 324.9338 197.7044 14.39510463458268
ORBCOMM FM20            
1 25416U 98046D   26178.50294218  .00000477  00000+0  20273-3 0  9994
2 25416  44.9921 202.5626 0002469 284.6276  75.4299 14.38077415458270
ORBCOMM FM27            
1 25481U 98053G   26177.62838274  .00000766  00000+0  29092-3 0  9991
2 25481  45.0059 290.5114 0001847 228.9736 131.0954 14.39157684451599
ORBCOMM FM32            
1 25982U 99065C   26178.16163414  .00000625  00000+0  25583-3 0  9993
2 25982  45.0142 126.0257 0004291  93.9843 266.1495 14.37142723388522
ORBCOMM FM109           
1 40086U 14040A   26177.61804380  .00000418  00000+0  12460-3 0  9998
2 40086  47.0039  46.8982 0001974 271.3333  88.7326 14.58854922635728
ORBCOMM FM110           
1 41182U 15081D   26178.10281192  .00000635  00000+0  17046-3 0  9993
2 41182  47.0031 314.5590 0002630 135.2880 224.8218 14.58894320559075
ORBCOMM FM118           
1 41183U 15081E   26178.06861049  .00000397  00000+0  12027-3 0  9993
2 41183  47.0054 315.0541 0002288  85.2498 274.8649 14.58887549559170
ORBCOMM FM112           
1 41184U 15081F   26178.48388492  .00000339  00000+0  10786-3 0  9992
2 41184  46.9974 221.5565 0004115 258.5156 101.5268 14.58914729560451
ORBCOMM FM113           
1 41185U 15081G   26178.52933301  .00000274  00000+0  94144-4 0  9992
2 41185  46.9990 221.7229 0002601 260.1661  99.8931 14.58866873560448
ORBCOMM FM108           
1 41187U 15081J   26178.14919117  .00000575  00000+0  15774-3 0  9996
2 41187  47.0045 135.0963 0003144 258.7728 101.2805 14.58885631561537
ORBCOMM FM117           
1 41188U 15081K   26177.56688240  .00000289  00000+0  97330-4 0  9993
2 41188  47.0000 136.4805 0003648 260.3036  99.7438 14.58871605561493
ORBCOMM FM116           
1 41189U 15081L   26178.50599485  .00000361  00000+0  11253-3 0  9991
2 41189  47.0007 221.8311 0000743 164.1738 195.9171 14.58894075560448
